NORAD_CAT_ID,OBJECT_NAME,OBJECT_TYPE,EPOCH,MEAN_MOTION,ECCENTRICITY,INCLINATION,RA_OF_ASC_NODE,ARG_OF_PERICENTER,MEAN_ANOMALY,BSTAR,MEAN_MOTION_DOT,MEAN_MOTION_DDOT,TLE_LINE0,TLE_LINE1,TLE_LINE2,SEMIMAJOR_AXIS,PERIOD,APOGEE,PERIGEE,DECAYED
53550.0,STARLINK-4518,PAYLOAD,2022-10-23 14:00:01,15.17463119,0.0001524,53.2175,199.8482,58.1639,72.1199,-0.057259,-0.01075277,0.0,0 STARLINK-4518,1 53550U 22101Z   22296.58334491 -.01075277  00000-0 -57259-1 0  9992,2 53550  53.2175 199.8482 0001524  58.1639  72.1199 15.17463119  1309,6891.648,94.895,514.563,512.4630000000002,0.0
53550.0,STARLINK-4518,PAYLOAD,2022-10-23 22:00:00,15.16720037,0.0001457,53.2175,198.3334,70.1633,81.6065,-0.059836,-0.01098051,0.0,0 STARLINK-4518,1 53550U 22101Z   22296.91667824 -.01098051  00000-0 -59836-1 0  9996,2 53550  53.2175 198.3334 0001457  70.1633  81.6065 15.16720037  1303,6893.899,94.942,516.768,514.759,0.0
53550.0,STARLINK-4518,PAYLOAD,2022-10-24 06:00:00,15.15960817,0.0001526,53.2171,196.8215,60.3504,111.9995,-0.061091,-0.01097022,0.0,0 STARLINK-4518,1 53550U 22101Z   22297.25001157 -.01097022  00000-0 -61091-1 0  9998,2 53550  53.2171 196.8215 0001526  60.3504 111.9995 15.15960817 10248,6896.2,94.989,519.118,517.013,0.0
53550.0,STARLINK-4518,PAYLOAD,2022-10-24 14:00:01,15.15183575,0.0001529,53.2174,195.3091,62.5419,129.4865,-0.0610169999999999,-0.01073468,0.0,0 STARLINK-4518,1 53550U 22101Z   22297.58334491 -.01073468  00000-0 -61017-1 0  9990,2 53550  53.2174 195.3091 0001529  62.5419 129.4865 15.15183575  1304,6898.558000000001,95.038,521.4780000000002,519.369,0.0
53550.0,STARLINK-4518,PAYLOAD,2022-10-24 22:00:00,15.14443383,0.0001469,53.2176,193.8,75.6207,135.154,-0.063983,-0.01100058,0.0,0 STARLINK-4518,1 53550U 22101Z   22297.91667824 -.01100058  00000-0 -63983-1 0  9996,2 53550  53.2176 193.8000 0001469  75.6207 135.1540 15.14443383  1301,6900.806,95.084,523.685,521.6569999999998,0.0
53550.0,STARLINK-4518,PAYLOAD,2022-10-25 14:00:01,15.12905527,0.0001421,53.2174,190.7863,68.8789,176.6792,-0.0651009999999999,-0.01073717,0.0,0 STARLINK-4518,1 53550U 22101Z   22298.58334491 -.01073717  00000-0 -65101-1 0  9996,2 53550  53.2174 190.7863 0001421  68.8789 176.6792 15.12905527 10444,6905.482,95.181,528.328,526.365,0.0
53550.0,STARLINK-4518,PAYLOAD,2022-10-25 22:00:01,15.12159172,0.0001412,53.2175,189.2822,80.7002,180.9324,-0.067688,-0.01091781,0.0,0 STARLINK-4518,1 53550U 22101Z   22298.91668981 -.01091781  00000-0 -67688-1 0  9990,2 53550  53.2175 189.2822 0001412  80.7002 180.9324 15.12159172  1305,6907.754,95.228,530.594,528.643,0.0
53550.0,STARLINK-4518,PAYLOAD,2022-10-26 14:00:01,15.10626051,0.0001284,53.2174,186.279,75.5357,215.3389,-0.0692779999999999,-0.01072129,0.0,0 STARLINK-4518,1 53550U 22101Z   22299.58334491 -.01072129  00000-0 -69278-1 0  9992,2 53550  53.2174 186.2790 0001284  75.5357 215.3389 15.10626051  1304,6912.427,95.325,535.179,533.404,0.0
53550.0,STARLINK-4518,PAYLOAD,2022-10-26 22:00:00,15.09803485,0.0001266,53.2175,184.7815,67.8964,236.2701,-0.060223,-0.00910994,0.0,0 STARLINK-4518,1 53550U 22101Z   22299.91667824 -.00910994  00000-0 -60223-1 0  9999,2 53550  53.2175 184.7815 0001266  67.8964 236.2701 15.09803485  1300,6914.937,95.377,537.677,535.927,0.0
53550.0,STARLINK-4518,PAYLOAD,2022-10-27 06:00:00,15.09059511,0.0001174,53.2173,183.2839,87.1879,229.3426,-0.0208539999999999,-0.00319642,0.0,0 STARLINK-4518,1 53550U 22101Z   22300.25001157 -.00319642  00000-0 -20854-1 0  9999,2 53550  53.2173 183.2839 0001174  87.1879 229.3426 15.09059511 10700,6917.21,95.424,539.887,538.262,0.0
53550.0,STARLINK-4518,PAYLOAD,2022-10-27 14:00:01,15.08847281,0.0001167,53.2145,181.7784,72.1987,256.0924,0.0030811999999999,0.00049101,0.0,0 STARLINK-4518,1 53550U 22101Z   22300.58335648  .00049101  00000-0  30812-2 0  9994,2 53550  53.2145 181.7784 0001167  72.1987 256.0924 15.08847281 10750,6917.858,95.437,540.53,538.9159999999998,0.0
53550.0,STARLINK-4518,PAYLOAD,2022-10-27 22:00:00,15.08875354,0.0001242999999999,53.2144,180.2835,64.3483,275.509,-0.0020089,-0.00032148,0.0,0 STARLINK-4518,1 53550U 22101Z   22300.91667824 -.00032148  00000-0 -20089-2 0  9995,2 53550  53.2144 180.2835 0001243  64.3483 275.5090 15.08875354  1302,6917.772,95.435,540.497,538.7769999999998,0.0
53550.0,STARLINK-4518,PAYLOAD,2022-10-28 06:00:00,15.08896452,0.0001273,53.2147,178.7868,59.4015,292.0606,-0.0067667,-0.00106554,0.0,0 STARLINK-4518,1 53550U 22101Z   22301.25001157 -.00106554  00000-0 -67667-2 0  9990,2 53550  53.2147 178.7868 0001273  59.4015 292.0606 15.08896452 10851,6917.708000000001,95.434,540.453,538.692,0.0
53550.0,STARLINK-4518,PAYLOAD,2022-10-28 14:00:01,15.08790892,0.0001365999999999,53.2159,177.2888,73.1981,289.9504,0.0033358,0.0005313,0.0,0 STARLINK-4518,1 53550U 22101Z   22301.58335648  .00053130  00000-0  33358-2 0  9990,2 53550  53.2159 177.2888 0001366  73.1981 289.9504 15.08790892  1301,6918.03,95.441,540.84,538.95,0.0
53550.0,STARLINK-4518,PAYLOAD,2022-10-28 22:00:01,15.08826381,0.0001501,53.216,175.7941,66.0196,308.6874,-0.00053439,-8.78e-05,0.0,0 STARLINK-4518,1 53550U 22101Z   22301.91668981 -.00008780  00000-0 -53439-3 0  9992,2 53550  53.2160 175.7941 0001501  66.0196 308.6874 15.08826381 10959,6917.922,95.438,540.825,538.749,0.0
53550.0,STARLINK-4518,PAYLOAD,2022-10-29 12:00:00,15.08812816,0.0001378,53.2162,173.1746,71.1465,233.7706,0.0034349,0.00054762,0.0,0 STARLINK-4518,1 53550U 22101Z   22302.50001157  .00054762  00000-0  34349-2 0  9991,2 53550  53.2162 173.1746 0001378  71.1465 233.7706 15.08812816  1303,6917.9630000000025,95.439,540.7819999999998,538.875,0.0
53550.0,STARLINK-4518,PAYLOAD,2022-10-29 22:00:01,15.08857928,0.0001494,53.2162,171.3048,64.3459,345.1573,-0.0013788,-0.00022175,0.0,0 STARLINK-4518,1 53550U 22101Z   22302.91668981 -.00022175  00000-0 -13788-2 0  9999,2 53550  53.2162 171.3048 0001494  64.3459 345.1573 15.08857928  1307,6917.826,95.436,540.724,538.6569999999998,0.0
53550.0,STARLINK-4518,PAYLOAD,2022-10-30 00:00:00,15.08831884,0.0001492,53.2164,170.9311,62.1733,80.1767,0.0020459,0.00032415,0.0,0 STARLINK-4518,1 53550U 22101Z   22303.00001157  .00032415  00000-0  20459-2 0  9995,2 53550  53.2164 170.9311 0001492  62.1733  80.1767 15.08831884 11110,6917.905,95.438,540.802,538.738,0.0
53550.0,STARLINK-4518,PAYLOAD,2022-10-30 14:00:01,15.08828707,0.0001460999999999,53.2167,168.3104,70.9001,1.7231,0.00090285,0.00014106,0.0,0 STARLINK-4518,1 53550U 22101Z   22303.58334491  .00014106  00000-0  90285-3 0  9990,2 53550  53.2167 168.3104 0001461  70.9001   1.7231 15.08828707  1300,6917.915,95.438,540.7909999999998,538.769,0.0
53550.0,STARLINK-4518,PAYLOAD,2022-10-30 22:00:01,15.08822886,0.0001521999999999,53.2168,166.8158,63.0663,21.212,-0.0006505,-0.00010621,0.0,0 STARLINK-4518,1 53550U 22101Z   22303.91668981 -.00010621  00000-0 -65050-3 0  9993,2 53550  53.2168 166.8158 0001522  63.0663  21.2120 15.08822886  1304,6917.933000000001,95.439,540.851,538.745,0.0
53550.0,STARLINK-4518,PAYLOAD,2022-10-31 14:00:01,15.088263199999998,0.0001406999999999,53.2174,163.8214,70.1263,37.2417,0.0020844,0.00033029,0.0,0 STARLINK-4518,1 53550U 22101Z   22304.58334491  .00033029  00000-0  20844-2 0  9999,2 53550  53.2174 163.8214 0001407  70.1263  37.2417 15.08826320  1301,6917.922,95.438,540.761,538.814,0.0
53550.0,STARLINK-4518,PAYLOAD,2022-10-31 22:00:01,15.08842353,0.0001468,53.2175,162.3269,61.3899,57.6375,-0.0019747,-0.0003158,0.0,0 STARLINK-4518,1 53550U 22101Z   22304.91668981 -.00031580  00000-0 -19747-2 0  9992,2 53550  53.2175 162.3269 0001468  61.3899  57.6375 15.08842353 11405,6917.873000000001,95.437,540.754,538.7230000000002,0.0
53550.0,STARLINK-4518,PAYLOAD,2022-11-01 14:00:01,15.08832791,0.0001326,53.2179,159.3327,69.778,72.3609,0.0018863,0.00029854,0.0,0 STARLINK-4518,1 53550U 22101Z   22305.58334491  .00029854  00000-0  18863-2 0  9999,2 53550  53.2179 159.3327 0001326  69.7780  72.3609 15.08832791  1301,6917.901999999999,95.438,540.685,538.85,0.0
53550.0,STARLINK-4518,PAYLOAD,2022-11-01 22:00:00,15.08852844,0.0001485,53.2178,157.8382,61.2962,92.4422,-0.0011376,-0.00018354,0.0,0 STARLINK-4518,1 53550U 22101Z   22305.91667824 -.00018354  00000-0 -11376-2 0  9992,2 53550  53.2178 157.8382 0001485  61.2962  92.4422 15.08852844  1306,6917.840999999999,95.437,540.7330000000002,538.679,0.0
53550.0,STARLINK-4518,PAYLOAD,2022-11-02 06:00:00,15.08859627,0.0001498,53.2175,156.341,64.9788,100.3614,-0.0053628,-0.0008468,0.0,0 STARLINK-4518,1 53550U 22101Z   22306.25001157 -.00084680  00000-0 -53628-2 0  9992,2 53550  53.2175 156.3410 0001498  64.9788 100.3614 15.08859627 11601,6917.82,95.436,540.722,538.649,0.0
53550.0,STARLINK-4518,PAYLOAD,2022-11-02 14:00:01,15.08805316,0.000154,53.2176,154.8448,74.8058,102.1142,0.0014613,0.00023023,0.0,0 STARLINK-4518,1 53550U 22101Z   22306.58334491  .00023023  00000-0  14613-2 0  9991,2 53550  53.2176 154.8448 0001540  74.8058 102.1142 15.08805316  1302,6917.986,95.44,540.9169999999998,538.786,0.0
53550.0,STARLINK-4518,PAYLOAD,2022-11-02 20:00:01,15.08790421,0.0001584,53.2177,153.726,70.9098,24.7492,0.0043677,0.00069818,0.0,0 STARLINK-4518,1 53550U 22101Z   22306.83335648  .00069818  00000-0  43677-2 0  9998,2 53550  53.2177 153.7260 0001584  70.9098  24.7492 15.08790421  1309,6918.031999999997,95.441,540.993,538.8009999999998,0.0
53550.0,STARLINK-4518,PAYLOAD,2022-11-03 00:20:53,15.08824045,0.000177,53.2185,152.9071,64.5379,295.5796,-1.4955e-05,-5.26e-06,0.0,0 STARLINK-4518,1 53550U 22101Z   22307.01450979 -.00000526  00000-0 -14955-4 0  9996,2 53550  53.2185 152.9071 0001770  64.5379 295.5796 15.08824045 11729,6917.929,95.439,541.019,538.57,0.0
53550.0,STARLINK-4518,PAYLOAD,2022-11-03 13:03:58,15.08827156,9.89e-05,53.2193,150.5292,59.4866,300.6224,3.6785e-05,2.98e-06,0.0,0 STARLINK-4518,1 53550U 22101Z   22307.54442858  .00000298  00000-0  36785-4 0  9990,2 53550  53.2193 150.5292 0000989  59.4866 300.6224 15.08827156 12464,6917.92,95.438,540.469,539.1,0.0
